MALLIGYONG-1            
1 58400U 23179A   23348.17617215  .00004770  00000+0  21480-3 0  9994
2 58400  97.4265 232.6545 0015160 193.3538 166.7299 15.21450903  3434
